1 39444U 13066AE  21251.45490754  .00000450  00000-0  61011-4 0  9991
2 39444  97.5905 233.8926 0056125 238.2322 121.3417 14.82507836419732